[{"OBJECT_NAME":"SPAWAR-CAL-O","OBJECT_ID":"2018-099J","EPOCH":"2026-03-09T17:45:15.080832","MEAN_MOTION":15.31356755,"ECCENTRICITY":0.00072392,"INCLINATION":97.4452,"RA_OF_ASC_NODE":132.0993,"ARG_OF_PERICENTER":285.067,"MEAN_ANOMALY":74.977,"EPHEMERIS_TYPE":0,"CLASSIFICATION_TYPE":"U","NORAD_CAT_ID":43766,"ELEMENT_SET_NO":999,"REV_AT_EPOCH":39828,"BSTAR":0.00069663212,"MEAN_MOTION_DOT":0.00021069,"MEAN_MOTION_DDOT":0},{"OBJECT_NAME":"STARLINK-34647","OBJECT_ID":"2025-157A","EPOCH":"2026-03-09T23:23:10.227552","MEAN_MOTION":15.30218639,"ECCENTRICITY":0.00012613,"INCLINATION":53.1599,"RA_OF_ASC_NODE":344.6184,"ARG_OF_PERICENTER":67.4333,"MEAN_ANOMALY":292.6802,"EPHEMERIS_TYPE":0,"CLASSIFICATION_TYPE":"U","NORAD_CAT_ID":64904,"ELEMENT_SET_NO":999,"REV_AT_EPOCH":3615,"BSTAR":0.0014253055,"MEAN_MOTION_DOT":0.00042118,"MEAN_MOTION_DDOT":0}]
